SENTINEL-6              
1 46984U 20086A   23353.01739513 -.00000050  00000+0  49632-4 0  9995
2 46984  66.0400 227.5608 0007641 269.7956  90.2183 12.80929069143626
